CTC1_L_00043001-01
1 88975U 25186TU  26070.40831019  .00000000  00000+0  00000-0 0  9999
2 88975  55.0000   0.0000 0000000   0.0000   0.0000 15.59190035    18
CTC1_L_00043001-02
1 88976U 25922PE  26070.40831019  .00000000  00000+0  00000-0 0  9998
2 88976  55.0000   0.0000 0000000   0.0000  90.0000 15.59190035    18
CTC1_L_00043001-03
1 88977U 24437GJ  26070.40831019  .00000000  00000+0  00000-0 0  9999
2 88977  55.0000   0.0000 0000000   0.0000 180.0000 15.59190035    19
CTC1_L_00043001-04
1 88978U 26471AT  26070.40831019  .00000000  00000+0  00000-0 0  9990
2 88978  55.0000   0.0000 0000000   0.0000 270.0000 15.59190035    10
CTC1_L_00043002-01
1 88979U 22328GQ  26070.40831019  .00000000  00000+0  00000-0 0  9998
2 88979  55.0000  12.0000 0000000   0.0000  12.0000 15.59190035    18
CTC1_L_00043002-02
1 88980U 25192DR  26070.40831019  .00000000  00000+0  00000-0 0  9992
2 88980  55.0000  12.0000 0000000   0.0000 102.0000 15.59190035    10
CTC1_L_00043002-03
1 88981U 23252OL  26070.40831019  .00000000  00000+0  00000-0 0  9998
2 88981  55.0000  12.0000 0000000   0.0000 192.0000 15.59190035    10
CTC1_L_00043002-04
1 88982U 25602FV  26070.40831019  .00000000  00000+0  00000-0 0  9990
2 88982  55.0000  12.0000 0000000   0.0000 282.0000 15.59190035    11
CTC1_L_00043003-01
1 88983U 26780FS  26070.40831019  .00000000  00000+0  00000-0 0  9999
2 88983  55.0000  24.0000 0000000   0.0000  24.0000 15.59190035    19
CTC1_L_00043003-02
1 88984U 25156TZ  26070.40831019  .00000000  00000+0  00000-0 0  9996
2 88984  55.0000  24.0000 0000000   0.0000 114.0000 15.59190035    10
CTC1_L_00043003-03
1 88985U 26243DP  26070.40831019  .00000000  00000+0  00000-0 0  9995
2 88985  55.0000  24.0000 0000000   0.0000 204.0000 15.59190035    11
CTC1_L_00043003-04
1 88986U 23431RX  26070.40831019  .00000000  00000+0  00000-0 0  9992
2 88986  55.0000  24.0000 0000000   0.0000 294.0000 15.59190035    11
CTC1_L_00043004-01
1 88987U 26927BT  26070.40831019  .00000000  00000+0  00000-0 0  9996
2 88987  55.0000  36.0000 0000000   0.0000  36.0000 15.59190035    19
CTC1_L_00043004-02
1 88988U 24097UM  26070.40831019  .00000000  00000+0  00000-0 0  9993
2 88988  55.0000  36.0000 0000000   0.0000 126.0000 15.59190035    10
CTC1_L_00043004-03
1 88989U 22878IO  26070.40831019  .00000000  00000+0  00000-0 0  9999
2 88989  55.0000  36.0000 0000000   0.0000 216.0000 15.59190035    11
CTC1_L_00043004-04
1 88990U 26820UT  26070.40831019  .00000000  00000+0  00000-0 0  9992
2 88990  55.0000  36.0000 0000000   0.0000 306.0000 15.59190035    13
CTC1_L_00043005-01
1 88991U 24532RR  26070.40831019  .00000000  00000+0  00000-0 0  9991
2 88991  55.0000  48.0000 0000000   0.0000  48.0000 15.59190035    10
CTC1_L_00043005-02
1 88992U 23635O   26070.40831019  .00000000  00000+0  00000-0 0  9995
2 88992  55.0000  48.0000 0000000   0.0000 138.0000 15.59190035    11
CTC1_L_00043005-03
1 88993U 26778SN  26070.40831019  .00000000  00000+0  00000-0 0  9997
2 88993  55.0000  48.0000 0000000   0.0000 228.0000 15.59190035    12
CTC1_L_00043005-04
1 88994U 23234AE  26070.40831019  .00000000  00000+0  00000-0 0  9992
2 88994  55.0000  48.0000 0000000   0.0000 318.0000 15.59190035    13
CTC1_L_00043006-01
1 88995U 23211QS  26070.40831019  .00000000  00000+0  00000-0 0  9998
2 88995  55.0000  60.0000 0000000   0.0000  60.0000 15.59190035    12
CTC1_L_00043006-02
1 88996U 22580GD  26070.40831019  .00000000  00000+0  00000-0 0  9997
2 88996  55.0000  60.0000 0000000   0.0000 150.0000 15.59190035    13
CTC1_L_00043006-03
1 88997U 25436IA  26070.40831019  .00000000  00000+0  00000-0 0  9991
2 88997  55.0000  60.0000 0000000   0.0000 240.0000 15.59190035    14
CTC1_L_00043006-04
1 88998U 23356ML  26070.40831019  .00000000  00000+0  00000-0 0  9991
2 88998  55.0000  60.0000 0000000   0.0000 330.0000 15.59190035    15
CTC1_L_00043007-01
1 88999U 23343ZG  26070.40831019  .00000000  00000+0  00000-0 0  9998
2 88999  55.0000  72.0000 0000000   0.0000  72.0000 15.59190035    12
CTC1_L_00043007-02
1 89000U 22265JH  26070.40831019  .00000000  00000+0  00000-0 0  9994
2 89000  55.0000  72.0000 0000000   0.0000 162.0000 15.59190035    16
CTC1_L_00043007-03
1 89001U 26816MG  26070.40831019  .00000000  00000+0  00000-0 0  9991
2 89001  55.0000  72.0000 0000000   0.0000 252.0000 15.59190035    17
CTC1_L_00043007-04
1 89002U 25438FR  26070.40831019  .00000000  00000+0  00000-0 0  9991
2 89002  55.0000  72.0000 0000000   0.0000 342.0000 15.59190035    18
CTC1_L_00043008-01
1 89003U 26479WD  26070.40831019  .00000000  00000+0  00000-0 0  9998
2 89003  55.0000  84.0000 0000000   0.0000  84.0000 15.59190035    15
CTC1_L_00043008-02
1 89004U 24752UT  26070.40831019  .00000000  00000+0  00000-0 0  9991
2 89004  55.0000  84.0000 0000000   0.0000 174.0000 15.59190035    16
CTC1_L_00043008-03
1 89005U 26580JG  26070.40831019  .00000000  00000+0  00000-0 0  9993
2 89005  55.0000  84.0000 0000000   0.0000 264.0000 15.59190035    17
CTC1_L_00043008-04
1 89006U 22777ZB  26070.40831019  .00000000  00000+0  00000-0 0  9998
2 89006  55.0000  84.0000 0000000   0.0000 354.0000 15.59190035    18
CTC1_L_00043009-01
1 89007U 22472LR  26070.40831019  .00000000  00000+0  00000-0 0  9991
2 89007  55.0000  96.0000 0000000   0.0000  96.0000 15.59190035    15
CTC1_L_00043009-02
1 89008U 26272JW  26070.40831019  .00000000  00000+0  00000-0 0  9994
2 89008  55.0000  96.0000 0000000   0.0000 186.0000 15.59190035    16
CTC1_L_00043009-03
1 89009U 25936RF  26070.40831019  .00000000  00000+0  00000-0 0  9991
2 89009  55.0000  96.0000 0000000   0.0000 276.0000 15.59190035    17
CTC1_L_00043009-04
1 89010U 23021YH  26070.40831019  .00000000  00000+0  00000-0 0  9996
2 89010  55.0000  96.0000 0000000   0.0000   6.0000 15.59190035    10
CTC1_L_00043010-01
1 89011U 23931PD  26070.40831019  .00000000  00000+0  00000-0 0  9997
2 89011  55.0000 108.0000 0000000   0.0000 108.0000 15.59190035    18
CTC1_L_00043010-02
1 89012U 26697Q   26070.40831019  .00000000  00000+0  00000-0 0  9990
2 89012  55.0000 108.0000 0000000   0.0000 198.0000 15.59190035    18
CTC1_L_00043010-03
1 89013U 24207SG  26070.40831019  .00000000  00000+0  00000-0 0  9996
2 89013  55.0000 108.0000 0000000   0.0000 288.0000 15.59190035    19
CTC1_L_00043010-04
1 89014U 24103AU  26070.40831019  .00000000  00000+0  00000-0 0  9992
2 89014  55.0000 108.0000 0000000   0.0000  18.0000 15.59190035    11
CTC1_L_00043011-01
1 89015U 26210MD  26070.40831019  .00000000  00000+0  00000-0 0  9994
2 89015  55.0000 120.0000 0000000   0.0000 120.0000 15.59190035    10
CTC1_L_00043011-02
1 89016U 24308HZ  26070.40831019  .00000000  00000+0  00000-0 0  9991
2 89016  55.0000 120.0000 0000000   0.0000 210.0000 15.59190035    11
CTC1_L_00043011-03
1 89017U 23895OR  26070.40831019  .00000000  00000+0  00000-0 0  9992
2 89017  55.0000 120.0000 0000000   0.0000 300.0000 15.59190035    12
CTC1_L_00043011-04
1 89018U 25805UE  26070.40831019  .00000000  00000+0  00000-0 0  9996
2 89018  55.0000 120.0000 0000000   0.0000  30.0000 15.59190035    13
CTC1_L_00043012-01
1 89019U 25523TM  26070.40831019  .00000000  00000+0  00000-0 0  9994
2 89019  55.0000 132.0000 0000000   0.0000 132.0000 15.59190035    10
CTC1_L_00043012-02
1 89020U 23065HY  26070.40831019  .00000000  00000+0  00000-0 0  9995
2 89020  55.0000 132.0000 0000000   0.0000 222.0000 15.59190035    12
CTC1_L_00043012-03
1 89021U 23977PY  26070.40831019  .00000000  00000+0  00000-0 0  9998
2 89021  55.0000 132.0000 0000000   0.0000 312.0000 15.59190035    13
CTC1_L_00043012-04
1 89022U 26695EN  26070.40831019  .00000000  00000+0  00000-0 0  9999
2 89022  55.0000 132.0000 0000000   0.0000  42.0000 15.59190035    14
CTC1_L_00043013-01
1 89023U 25436PU  26070.40831019  .00000000  00000+0  00000-0 0  9992
2 89023  55.0000 144.0000 0000000   0.0000 144.0000 15.59190035    11
CTC1_L_00043013-02
1 89024U 26295NI  26070.40831019  .00000000  00000+0  00000-0 0  9997
2 89024  55.0000 144.0000 0000000   0.0000 234.0000 15.59190035    12
CTC1_L_00043013-03
1 89025U 23250A   26070.40831019  .00000000  00000+0  00000-0 0  9996
2 89025  55.0000 144.0000 0000000   0.0000 324.0000 15.59190035    13
CTC1_L_00043013-04
1 89026U 23670WB  26070.40831019  .00000000  00000+0  00000-0 0  9993
2 89026  55.0000 144.0000 0000000   0.0000  54.0000 15.59190035    14
CTC1_L_00043014-01
1 89027U 24846TS  26070.40831019  .00000000  00000+0  00000-0 0  9990
2 89027  55.0000 156.0000 0000000   0.0000 156.0000 15.59190035    11
CTC1_L_00043014-02
1 89028U 23046K   26070.40831019  .00000000  00000+0  00000-0 0  9992
2 89028  55.0000 156.0000 0000000   0.0000 246.0000 15.59190035    12
CTC1_L_00043014-03
1 89029U 25816JC  26070.40831019  .00000000  00000+0  00000-0 0  9990
2 89029  55.0000 156.0000 0000000   0.0000 336.0000 15.59190035    13
CTC1_L_00043014-04
1 89030U 25202SJ  26070.40831019  .00000000  00000+0  00000-0 0  9991
2 89030  55.0000 156.0000 0000000   0.0000  66.0000 15.59190035    15
CTC1_L_00043015-01
1 89031U 24957WF  26070.40831019  .00000000  00000+0  00000-0 0  9998
2 89031  55.0000 168.0000 0000000   0.0000 168.0000 15.59190035    12
CTC1_L_00043015-02
1 89032U 23363GT  26070.40831019  .00000000  00000+0  00000-0 0  9999
2 89032  55.0000 168.0000 0000000   0.0000 258.0000 15.59190035    13
CTC1_L_00043015-03
1 89033U 23935II  26070.40831019  .00000000  00000+0  00000-0 0  9995
2 89033  55.0000 168.0000 0000000   0.0000 348.0000 15.59190035    14
CTC1_L_00043015-04
1 89034U 24177UQ  26070.40831019  .00000000  00000+0  00000-0 0  9995
2 89034  55.0000 168.0000 0000000   0.0000  78.0000 15.59190035    15
CTC1_L_00043016-01
1 89035U 26897TA  26070.40831019  .00000000  00000+0  00000-0 0  9997
2 89035  55.0000 180.0000 0000000   0.0000 180.0000 15.59190035    14
CTC1_L_00043016-02
1 89036U 26928FH  26070.40831019  .00000000  00000+0  00000-0 0  9993
2 89036  55.0000 180.0000 0000000   0.0000 270.0000 15.59190035    15
